BEESAT-4                
1 41619U 16040W   22251.71595941  .00014255  00000+0  44828-3 0  9990
2 41619  97.2098 300.1967 0009640 168.1114 192.0358 15.33022885333470
CAS-2T & KS-1Q          
1 41847U 16066G   22251.73245711  .00000414  00000+0  72822-4 0  9998
2 41847  98.5440 316.2873 0362635 320.9026  36.6454 14.38712266306325
NAYIF-1 (EO-88)         
1 42017U 17008BX  22251.70430892  .00016924  00000+0  47107-3 0  9998
2 42017  97.2624 316.7091 0003261 318.2186  41.8810 15.36881020309855
ZHUHAI-1 02 (CAS-4B)    
1 42759U 17034B   22251.80148934  .00003491  00000+0  21028-3 0  9993
2 42759  43.0157 233.1144 0008134  91.7773 334.1876 15.12380690288978
ZHUHAI-1 01 (CAS-4A)    
1 42761U 17034D   22251.68535880  .00003165  00000+0  19139-3 0  9990
2 42761  43.0170 232.4822 0008472  91.2201 252.6947 15.12462093288956
MAX VALIER SAT          
1 42778U 17036P   22251.84401706  .00007902  00000+0  29055-3 0  9998
2 42778  97.1990 290.1109 0011432  39.3419 320.8650 15.28090190289634
RADFXSAT (FOX-1B)       
1 43017U 17073E   22251.70745803  .00003492  00000+0  26549-3 0  9995
2 43017  97.6631 142.4787 0245282 275.1634  82.1632 14.81943760259442
FOX-1D (AO-92)          
1 43137U 18004AC  22251.15327529  .00009996  00000+0  33904-3 0  9991
2 43137  97.3640 325.6162 0008830  74.0416 286.1797 15.30692161258992
DIWATA-2B               
1 43678U 18084H   22251.79892487  .00000858  00000+0  89810-4 0  9995
2 43678  97.9816  26.0989 0010238  18.2190 341.9416 14.92283381210281
ES'HAIL 2               
1 43700U 18090A   22251.25465912  .00000123  00000+0  00000+0 0  9992
2 43700   0.0127 222.5341 0002192 334.9941 267.2522  1.00273217 13869
FOX-1CLIFF (AO-95)      
1 43770U 18099N   22251.63004936  .00001662  00000+0  15011-3 0  9996
2 43770  97.6145 315.8090 0014065   2.2136 357.9146 14.96754259205454
ITASAT 1                
1 43786U 18099AE  22251.75015087  .00001562  00000+0  14097-3 0  9997
2 43786  97.6180 316.8880 0014516 356.0595   4.0511 14.96863555205511
JY1SAT (JO-97)          
1 43803U 18099AX  22251.67158288  .00003123  00000+0  27281-3 0  9993
2 43803  97.6141 316.5927 0014100 356.0868   4.0242 14.97429685205524
UWE-4                   
1 43880U 18111E   22251.67791939  .00003117  00000+0  26497-3 0  9990
2 43880  97.6587 156.5232 0012806  48.5130 311.7190 14.98510560202161
NEXUS (FO-99)           
1 43937U 19003F   22251.79948140  .00011695  00000+0  37446-3 0  9991
2 43937  97.1255 281.9786 0018850 209.7750 150.2421 15.32362763202737
PSAT2 (NO-104)          
1 44354U 19036R   22251.53082969  .00088731 -45697-5  68511-3 0  9991
2 44354  28.5246 318.9152 0202074 192.6648 166.8821 15.47957121177525
JAISAT-1                
1 44419U 19038F   22251.89640618  .00007357  00000+0  35969-3 0  9993
2 44419  97.6429 222.7892 0018115 196.5439 163.5205 15.18388877175715
DUCHIFAT-3              
1 44854U 19089C   22251.60229079  .00003731  00000+0  28869-3 0  9998
2 44854  36.9680 327.2380 0007397 182.1978 319.5368 15.01519838150435
CAS-6 (TIANQIN 1)       
1 44881U 19093C   22251.84072883  .00000463  00000+0  65317-4 0  9997
2 44881  97.8887 329.8411 0013610 276.3773  83.5877 14.81803182147127
RS-44 & BREEZE-KM R/B   
1 44909U 19096E   22251.76826712  .00000017  00000+0  17564-4 0  9996
2 44909  82.5252 174.9348 0218167 124.7489 237.4368 12.79714695126168
ORBITAL FACTORY 2 (OF-2)
1 45113U 19071C   22251.81549250  .00035709  00000+0  64712-3 0  9994
2 45113  51.6381   8.0558 0007977 116.0030 244.1781 15.49245868146287
HUSKYSAT-1 (HO-107)     
1 45119U 19071J   22251.62524695  .00029674  00000+0  56727-3 0  9996
2 45119  51.6387   9.7543 0008233 111.4065 248.7802 15.47805534146233
BY70-2                  
1 45857U 20042B   22251.77460483  .00005975  00000+0  78404-3 0  9999
2 45857  97.9513 327.8542 0010066 199.0452 161.0450 14.80625614117787
SALSAT                  
1 46495U 20068K   22251.82268421  .00001875  00000+0  13696-3 0  9997
2 46495  97.7335 193.1817 0016425   2.4519 357.6785 15.04801714106721
BY70-3                  
1 46839U 20079N   22251.81875729  .00028294  00000+0  59730-3 0  9998
2 46839  97.1917 322.9712 0005542  45.6906  89.4152 15.45148790103106
RADFXSAT-2 (AO-109)     
1 47311U 21002C   22251.62449367  .00008234  00000+0  32025-3 0  9995
2 47311  60.6855  48.8917 0030951  34.3800 325.9283 15.26401776 91158
UVSQ-SAT                
1 47438U 21006AB  22251.63953067  .00005923  00000+0  30719-3 0  9997
2 47438  97.4303 308.9524 0011168 354.4551   5.6557 15.16474073 89888
DIY-1 (ARDUIQUBE)       
1 47963U 21022AH  22251.19651109  .00015654  00000+0  82532-3 0  9993
2 47963  97.5228 151.6825 0015011 199.0864 160.9808 15.15562844 79477
XW-3 (CAS-9)            
1 50466U 21131B   22251.91795176  .00000143  00000+0  61299-4 0  9994
2 50466  98.5765 329.1173 0003467 252.8782 107.2026 14.38520269 36910
TEVEL-3                 
1 50988U 22002E   22251.85319340  .00007906  00000+0  42252-3 0  9990
2 50988  97.4746 317.4640 0010675 130.6323 289.3991 15.15310753 36046
TEVEL-8                 
1 50989U 22002F   22251.80944117  .00007735  00000+0  41411-3 0  9998
2 50989  97.4762 317.4489 0010862 129.3206   8.6319 15.15255556 36033
TEVEL-5                 
1 50998U 22002Q   22251.85306404  .00008228  00000+0  43326-3 0  9999
2 50998  97.4738 317.6066 0012267 127.4289 323.9834 15.15808928 36054
TEVEL-6                 
1 50999U 22002R   22251.85250406  .00008219  00000+0  43274-3 0  9992
2 50999  97.4742 317.6035 0012222 126.9733 324.5894 15.15813887 36058
TEVEL-1                 
1 51013U 22002AF  22251.79721972  .00007657  00000+0  40967-3 0  9995
2 51013  97.4755 317.3867 0010753 129.4847 325.8468 15.15281454 36039
TEVEL-7                 
1 51062U 22002CG  22251.80343537  .00007669  00000+0  41073-3 0  9990
2 51062  97.4765 317.4273 0010674 128.0951 327.3325 15.15247389 36037
TEVEL-4                 
1 51063U 22002CH  22251.80425824  .00007609  00000+0  40762-3 0  9999
2 51063  97.4762 317.4241 0010744 128.2360 326.5365 15.15237259 36034
TEVEL-2                 
1 51069U 22002CP  22251.85459278  .00007872  00000+0  42082-3 0  9999
2 51069  97.4742 317.4494 0010613 130.4628 289.4943 15.15303393 36048
YUZGU 9 (RS3S)          
1 53308U 98067TT  22251.62638964  .00045744  00000+0  71396-3 0  9997
2 53308  51.6402 282.6555 0000659 138.2789 221.8251 15.53357403  7677
YUZGU 7 (RS1S)          
1 53309U 98067TU  22251.81776259  .00046690  00000+0  72548-3 0  9990
2 53309  51.6399 281.6822 0000648 226.4401 133.6535 15.53472063  7651
YUZGU 11 (RS5S)         
1 53310U 98067TV  22251.62603144  .00044421  00000+0  69394-3 0  9998
2 53310  51.6403 282.6538 0000481 233.3808 126.7138 15.53345383  7653
YUZGU 12 (RS6S)         
1 53311U 98067TW  22251.81449911  .00045115  00000+0  69758-3 0  9995
2 53311  51.6397 281.6601 0000955 110.0719 250.0374 15.53622326  7708
TSIOLKOVSKY-RYAZAN 1 (*)
1 53312U 98067TX  22251.62310043  .00045245  00000+0  70251-3 0  9992
2 53312  51.6403 282.6329 0000870 233.9911 126.0999 15.53506131  7610
TSIOLKOVSKY-RYAZAN 2 (*)
1 53313U 98067TY  22251.81475372  .00045121  00000+0  69938-3 0  9994
2 53313  51.6402 281.6634 0000556 270.6129  89.4798 15.53554745  7699
YUZGU 10 (RS4S)         
1 53321U 98067TZ  22251.81981872  .00045310  00000+0  70636-3 0  9997
2 53321  51.6405 281.6993 0000404 163.5517 196.5486 15.53394121  7696
RS29S (SXC3-2110 CYCLO*)
1 53373U 22096D   22251.83654020  .00010329  00000+0  41898-3 0  9997
2 53373  97.4330 153.0755 0003820  80.2612 349.4591 15.24802879  4653
RS32S (SXC3-212 MONITO*)
1 53374U 22096E   22251.83417300  .00010458  00000+0  42280-3 0  9995
2 53374  97.4334 153.0770 0003666  73.4858 354.9357 15.24912852  4653
RS34S (SXC3-218 KUZBAS*)
1 53375U 22096F   22251.83406204  .00008969  00000+0  36336-3 0  9996
2 53375  97.4337 153.0774 0003574  75.1038 353.3291 15.24887872  4651
RS23S (SXC3-21 UTMN)    
1 53376U 22096G   22251.97627075  .00008008  00000+0  32447-3 0  9996
2 53376  97.4332 153.2210 0003515  73.1973  59.4430 15.24917956  4673
RS28S (SXC3-214 MIET-A*)
1 53377U 22096H   22251.76890493  .00008936  00000+0  36137-3 0  9990
2 53377  97.4332 153.0176 0003667  71.4202   6.6536 15.24950179  4649
RS26S (KAI-1)           
1 53378U 22096J   22251.83290508  .00007667  00000+0  31045-3 0  9993
2 53378  97.4325 153.0816 0003476  65.3046   7.0393 15.24955994  4656
RS19S (SXC3-219 ISOI)   
1 53381U 22096M   22251.82718034  .00008795  00000+0  35100-3 0  9994
2 53381  97.4330 153.0939 0004387  12.4041  73.8042 15.25394067  4653
RS21S (CUBESX-HSE-2)    
1 53383U 22096P   22251.76073546  .00008435  00000+0  33626-3 0  9993
2 53383  97.4335 153.0314 0004471  11.4074  76.6897 15.25444286  4643
RS30S (SXC3-217 SIREN)  
1 53384U 22096Q   22252.01730534  .00007878  00000+0  31419-3 0  9998
2 53384  97.4327 153.2863 0004535   8.3392  49.8300 15.25454561  4687
RS20S (GEOSCAN-EDELVEIS)
1 53385U 22096R   22251.75650519  .00011196  00000+0  44207-3 0  9990
2 53385  97.4321 153.0347 0005030   8.0231  77.4491 15.25679919  4670
RS33S (SXC3-215 VIZARD) 
1 53386U 22096S   22251.81536510  .00012844  00000+0  50242-3 0  9999
2 53386  97.4330 153.1048 0005809   5.7022  68.5003 15.25956630  4674
